NORAD_CAT_ID,OBJECT_NAME,OBJECT_TYPE,EPOCH,MEAN_MOTION,ECCENTRICITY,INCLINATION,RA_OF_ASC_NODE,ARG_OF_PERICENTER,MEAN_ANOMALY,BSTAR,MEAN_MOTION_DOT,MEAN_MOTION_DDOT,TLE_LINE0,TLE_LINE1,TLE_LINE2,SEMIMAJOR_AXIS,PERIOD,APOGEE,PERIGEE,DECAYED
56470.0,STARLINK-5523,PAYLOAD,2024-03-14 11:06:40,14.98330693,0.0002826,70.0025,153.168,221.889,138.2053,3.0352e-05,2.69e-06,0.0,0 STARLINK-5523,1 56470U 23064Y   24074.46297150  .00000269  00000-0  30352-4 0  9992,2 56470  70.0025 153.1680 0002826 221.8890 138.2053 14.98330693 47469,6950.191,96.107,574.02,570.092,0.0
56470.0,STARLINK-5523,PAYLOAD,2024-03-15 04:44:09,14.98329092,0.0002776,70.0011,151.312,269.5139,90.5702,6.2048e-06,-1.9e-07,0.0,0 STARLINK-5523,1 56470U 23064Y   24075.19733397 -.00000019  00000-0  62048-5 0  9993,2 56470  70.0011 151.3120 0002776 269.5139  90.5702 14.98329092 47576,6950.196,96.107,573.99,570.131,0.0
56470.0,STARLINK-5523,PAYLOAD,2024-03-15 11:08:42,14.98328571,0.0002796,70.0004,150.6403,261.1724,98.9119,-5.614e-05,-7.63e-06,0.0,0 STARLINK-5523,1 56470U 23064Y   24075.46437594 -.00000763  00000-0 -56140-4 0  9995,2 56470  70.0004 150.6403 0002796 261.1724  98.9119 14.98328571 47254,6950.197,96.107,574.006,570.119,0.0
56470.0,STARLINK-5523,PAYLOAD,2024-03-16 04:46:10,14.98326036,0.0002801,70.0001,148.7883,263.2586,96.8254,-1.1626e-05,-2.32e-06,0.0,0 STARLINK-5523,1 56470U 23064Y   24076.19873669 -.00000232  00000-0 -11626-4 0  9994,2 56470  70.0001 148.7883 0002801 263.2586  96.8254 14.98326036 47720,6950.205,96.107,574.017,570.123,0.0
56470.0,STARLINK-5523,PAYLOAD,2024-03-16 14:22:59,14.983267,0.0002782,70.0002,147.7788,261.6323,98.452,-3.5999e-06,-1.36e-06,0.0,0 STARLINK-5523,1 56470U 23064Y   24076.59929685 -.00000136  00000-0 -35999-5 0  9991,2 56470  70.0002 147.7788 0002782 261.6323  98.4520 14.98326700 47422,6950.203,96.107,574.002,570.135,0.0
56470.0,STARLINK-5523,PAYLOAD,2024-03-17 04:48:11,14.9833005,0.0003069,69.9994,146.2627,268.54,91.5408,6.5284e-05,6.86e-06,0.0,0 STARLINK-5523,1 56470U 23064Y   24077.20013279  .00000686  00000-0  65284-4 0  9990,2 56470  69.9994 146.2627 0003069 268.5400  91.5408 14.98330050 47877,6950.193,96.107,574.191,569.925,0.0
56470.0,STARLINK-5523,PAYLOAD,2024-03-17 14:24:59,14.98332778,0.0002967,69.9996,145.2534,266.6182,93.4638,8.682e-05,9.43e-06,0.0,0 STARLINK-5523,1 56470U 23064Y   24077.60069003  .00000943  00000-0  86820-4 0  9995,2 56470  69.9996 145.2534 0002967 266.6182  93.4638 14.98332778 47579,6950.184,96.107,574.111,569.987,0.0
56470.0,STARLINK-5523,PAYLOAD,2024-03-18 04:50:12,14.98326477,0.0002791,69.9999,143.7394,262.9922,97.092,1.855e-06,-7.1e-07,0.0,0 STARLINK-5523,1 56470U 23064Y   24078.20153642 -.00000071  00000-0  18550-5 0  9994,2 56470  69.9999 143.7394 0002791 262.9922  97.0920 14.98326477 48029,6950.204,96.107,574.009,570.129,0.0
56470.0,STARLINK-5523,PAYLOAD,2024-03-18 14:27:01,14.9832719,0.0002797,69.9999,142.7293,262.8773,97.2068,6.977e-06,-1e-07,0.0,0 STARLINK-5523,1 56470U 23064Y   24078.60209640 -.00000010  00000-0  69770-5 0  9991,2 56470  69.9999 142.7293 0002797 262.8773  97.2068 14.98327190 47729,6950.202,96.107,574.011,570.123,0.0
56470.0,STARLINK-5523,PAYLOAD,2024-03-19 12:52:53,14.98339283,0.0002741,69.9999,140.3728,262.4089,97.6759,6.0104e-05,6.24e-06,0.0,0 STARLINK-5523,1 56470U 23064Y   24079.53672491  .00000624  00000-0  60104-4 0  9993,2 56470  69.9999 140.3728 0002741 262.4089  97.6759 14.98339283 48224,6950.164,96.106,573.934,570.124,0.0
56470.0,STARLINK-5523,PAYLOAD,2024-03-20 09:42:39,14.98314281,0.0002609,69.9997,138.1837,259.1722,100.9144,-9.7716e-05,-1.258e-05,0.0,0 STARLINK-5523,1 56470U 23064Y   24080.40462666 -.00001258  00000-0 -97716-4 0  9997,2 56470  69.9997 138.1837 0002609 259.1722 100.9144 14.98314281 48359,6950.242,96.108,573.92,570.293,0.0
56470.0,STARLINK-5523,PAYLOAD,2024-03-20 12:54:55,14.98320279,0.0002943,69.999,137.8477,263.3279,96.7545,-7.428e-05,-9.79e-06,0.0,0 STARLINK-5523,1 56470U 23064Y   24080.53814247 -.00000979  00000-0 -74280-4 0  9997,2 56470  69.9990 137.8477 0002943 263.3279  96.7545 14.98320279 48017,6950.223,96.108,574.133,570.043,0.0
56470.0,STARLINK-5523,PAYLOAD,2024-03-21 04:56:15,14.98328904,0.0002865,69.9996,136.1632,266.6842,93.3989,-2.814e-05,-4.29e-06,0.0,0 STARLINK-5523,1 56470U 23064Y   24081.20573706 -.00000429  00000-0 -28140-4 0  9998,2 56470  69.9996 136.1632 0002865 266.6842  93.3989 14.98328904 48471,6950.196,96.107,574.053,570.07,0.0
56470.0,STARLINK-5523,PAYLOAD,2024-03-21 12:56:55,14.98337555,0.0002713,69.9995,135.321,265.2093,94.8756,6.0755e-05,6.32e-06,0.0,0 STARLINK-5523,1 56470U 23064Y   24081.53952882  .00000632  00000-0  60755-4 0  9992,2 56470  69.9995 135.3210 0002713 265.2093  94.8756 14.98337555 48524,6950.17,96.107,573.92,570.149,0.0
56470.0,STARLINK-5523,PAYLOAD,2024-03-22 04:58:16,14.98324054,0.0002492,69.9993,133.6379,256.2265,103.8617,0.00016589,1.887e-05,0.0,0 STARLINK-5523,1 56470U 23064Y   24082.20713311  .00001887  00000-0  16589-3 0  9997,2 56470  69.9993 133.6379 0002492 256.2265 103.8617 14.98324054 48622,6950.211,96.107,573.808,570.344,0.0
56470.0,STARLINK-5523,PAYLOAD,2024-03-22 12:58:56,14.98327576,0.0002533,69.9995,132.7975,259.4707,100.6167,0.00015606,1.769e-05,0.0,0 STARLINK-5523,1 56470U 23064Y   24082.54093245  .00001769  00000-0  15606-3 0  9999,2 56470  69.9995 132.7975 0002533 259.4707 100.6167 14.98327576 48311,6950.2,96.107,573.826,570.305,0.0
56470.0,STARLINK-5523,PAYLOAD,2024-03-23 05:00:17,14.9832446,0.0002663,70.0002,131.115,267.4233,92.6621,-2.5456e-05,-3.97e-06,0.0,0 STARLINK-5523,1 56470U 23064Y   24083.20853980 -.00000397  00000-0 -25456-4 0  9996,2 56470  70.0002 131.1150 0002663 267.4233  92.6621 14.98324460 48772,6950.21,96.107,573.926,570.224,0.0
56470.0,STARLINK-5523,PAYLOAD,2024-03-23 13:00:58,14.98324726,0.0002891,69.9997,130.2728,269.1299,90.9529,-5.877e-05,-7.94e-06,0.0,0 STARLINK-5523,1 56470U 23064Y   24083.54234156 -.00000794  00000-0 -58770-4 0  9997,2 56470  69.9997 130.2728 0002891 269.1299  90.9529 14.98324726 48466,6950.209,96.107,574.084,570.065,0.0
56470.0,STARLINK-5523,PAYLOAD,2024-03-24 05:02:17,14.9833532,0.0003164,69.9984,128.5858,277.1109,82.969,9.7832e-05,1.075e-05,0.0,0 STARLINK-5523,1 56470U 23064Y   24084.20992795  .00001075  00000-0  97832-4 0  9994,2 56470  69.9984 128.5858 0003164 277.1109  82.9690 14.98335320 48922,6950.176,96.107,574.24,569.842,0.0
56470.0,STARLINK-5523,PAYLOAD,2024-03-24 13:02:57,14.98345046,0.0002677,69.9996,127.7487,261.364,98.7216,0.00018594,2.127e-05,0.0,0 STARLINK-5523,1 56470U 23064Y   24084.54371669  .00002127  00000-0  18594-3 0  9998,2 56470  69.9996 127.7487 0002677 261.3640  98.7216 14.98345046 48977,6950.146,96.106,573.872,570.151,0.0
56470.0,STARLINK-5523,PAYLOAD,2024-03-24 19:27:30,14.98336946,0.0002809,69.9995,127.072,273.3154,86.7684,-1.3484e-05,-2.54e-06,0.0,0 STARLINK-5523,1 56470U 23064Y   24084.81076554 -.00000254  00000-0 -13484-4 0  9998,2 56470  69.9995 127.0720 0002809 273.3154  86.7684 14.98336946 49010,6950.171,96.107,573.989,570.084,0.0
56470.0,STARLINK-5523,PAYLOAD,2024-03-25 05:04:19,14.98321969,0.0002561,69.9996,126.065,262.0924,97.9945,-3.6209e-06,-1.36e-06,0.0,0 STARLINK-5523,1 56470U 23064Y   24085.21133568 -.00000136  00000-0 -36209-5 0  9992,2 56470  69.9996 126.0650 0002561 262.0924  97.9945 14.98321969 49076,6950.218,96.108,573.863,570.303,0.0
56470.0,STARLINK-5523,PAYLOAD,2024-03-25 19:29:32,14.98321808,0.0002678,69.9998,124.5462,279.1124,80.9732,-7.9443e-05,-1.04e-05,0.0,0 STARLINK-5523,1 56470U 23064Y   24085.81218194 -.00001040  00000-0 -79443-4 0  9998,2 56470  69.9998 124.5462 0002678 279.1124  80.9732 14.98321808 48800,6950.218,96.108,573.944,570.222,0.0
56470.0,STARLINK-5523,PAYLOAD,2024-03-26 05:06:20,14.98325953,0.0002719,69.9991,123.5384,265.5398,94.5451,-0.00020459,-2.533e-05,0.0,0 STARLINK-5523,1 56470U 23064Y   24086.21274275 -.00002533  00000-0 -20459-3 0  9995,2 56470  69.9991 123.5384 0002719 265.5398  94.5451 14.98325953 49224,6950.205,96.107,573.96,570.181,0.0
56470.0,STARLINK-5523,PAYLOAD,2024-03-26 11:30:53,14.9832127,0.0002725,69.9991,122.864,264.2536,95.8312,-0.00020621,-2.552e-05,0.0,0 STARLINK-5523,1 56470U 23064Y   24086.47978660 -.00002552  00000-0 -20621-3 0  9994,2 56470  69.9991 122.8640 0002725 264.2536  95.8312 14.98321270 48900,6950.22,96.108,573.979,570.191,0.0
56470.0,STARLINK-5523,PAYLOAD,2024-03-26 19:31:33,14.9835607,0.0002702,69.9993,122.0207,276.812,83.2732,-0.00068271,-8.235e-05,0.0,0 STARLINK-5523,1 56470U 23064Y   24086.81357700 -.00008235  00000-0 -68271-3 0  9995,2 56470  69.9993 122.0207 0002702 276.8120  83.2732 14.98356070 49315,6950.112,96.105,573.855,570.099,0.0
56470.0,STARLINK-5523,PAYLOAD,2024-03-27 05:08:21,14.983203,0.000295,69.9987,121.0134,265.7355,94.3467,0.00011235,1.247e-05,0.0,0 STARLINK-5523,1 56470U 23064Y   24087.21414166  .00001247  00000-0  11235-3 0  9992,2 56470  69.9987 121.0134 0002950 265.7355  94.3467 14.98320300 49379,6950.223,96.108,574.138,570.038,0.0
56470.0,STARLINK-5523,PAYLOAD,2024-03-27 11:32:54,14.98323434,0.0002969,69.9985,120.3401,265.4614,94.6206,8.5446e-05,9.26e-06,0.0,0 STARLINK-5523,1 56470U 23064Y   24087.48118182  .00000926  00000-0  85446-4 0  9999,2 56470  69.9985 120.3401 0002969 265.4614  94.6206 14.98323434 49051,6950.213,96.107,574.142,570.015,0.0
56470.0,STARLINK-5523,PAYLOAD,2024-03-27 19:33:34,14.98320596,0.0002883,69.9983,119.498,272.5858,87.4971,0.00025367,2.934e-05,0.0,0 STARLINK-5523,1 56470U 23064Y   24087.81498135  .00002934  00000-0  25367-3 0  9991,2 56470  69.9983 119.4980 0002883 272.5858  87.4971 14.98320596 49105,6950.222,96.108,574.091,570.083,0.0
56470.0,STARLINK-5523,PAYLOAD,2024-03-28 05:10:22,14.98328629,0.0003112,69.9981,118.4879,266.5039,93.5764,0.00021453,2.468e-05,0.0,0 STARLINK-5523,1 56470U 23064Y   24088.21553614  .00002468  00000-0  21453-3 0  9994,2 56470  69.9981 118.4879 0003112 266.5039  93.5764 14.98328629 49528,6950.197,96.107,574.225,569.899,0.0
